SL-16 R/B               
1 28353U 04021B   16138.53820294  .00000267  00000-0  16476-3 0  9992
2 28353  70.9997 188.1908 0003138  77.6554 282.4919 14.14172188616227
CZ-2C R/B               
1 28480U 04046B   16138.89666272  .00000038  00000-0  30622-4 0  9999
2 28480  98.1784 254.8064 0141111 311.5296 154.9863 14.25590103597913
ARIANE 5 R/B            
1 28499U 04049H   16138.82476189  .00000251  00000-0  38495-4 0  9994
2 28499  98.1111 212.7921 0093688  52.1778  61.5936 14.79691506615520
CZ-2D R/B               
1 28738U 05024B   16139.14036666  .00001234  00000-0  78727-4 0  9996
2 28738  97.5447 176.6809 0010774 284.7439  75.2596 15.10512696596166
SUZAKU (ASTRO-EII)      
1 28773U 05025A   16138.82325678  .00002288  00000-0  11594-3 0  9992
2 28773  31.3837 338.2116 0004989 341.3327  18.7136 15.14729566597330
ALOS (DAICHI)           
1 28931U 06002A   16138.55858356  .00000399  00000-0  87991-4 0  9994
2 28931  97.8873 178.7325 0002538 102.4618 257.6868 14.62186040549642
H-2A R/B                
1 28932U 06002B   16138.31753609  .00000802  00000-0  81636-4 0  9993
2 28932  98.2177  39.3385 0091097 167.3165 306.0826 14.90867231558819
AKARI (ASTRO-F)         
1 28939U 06005A   16138.61128372  .00009609  00000-0  31622-3 0  9992
2 28939  98.2366 292.1152 0116185 114.9934 246.3422 15.25386771552743
RESURS-DK 1             
1 29228U 06021A   16139.19947318  .00000398  00000-0  37820-4 0  9998
2 29228  69.9386  22.8266 0007519 239.3774 120.6640 15.01900460548797
GENESIS 1               
1 29252U 06029A   16139.19894956  .00001504  00000-0  87491-4 0  9991
2 29252  64.5038 134.7771 0033984 231.0668 206.0092 15.15971500541947
CZ-4B R/B               
1 29507U 06046C   16139.00314436  .00000766  00000-0  66069-4 0  9990
2 29507  97.7817 140.2945 0041347 155.9036 204.4133 14.99696856521803
CZ-2C R/B               
1 31114U 07010B   16138.40522850  .00000012  00000-0  24987-4 0  9990
2 31114  98.4150  54.9628 0058622 284.6349  74.8333 14.19203778471374
COSMO-SKYMED 1          
1 31598U 07023A   16139.10320262  .00000284  00000-0  42155-4 0  9999
2 31598  97.8751 322.9864 0001498  82.6159 277.5206 14.82166063483924
GENESIS 2               
1 31789U 07028A   16138.50944202  .00001647  00000-0  95045-4 0  9995
2 31789  64.5033 173.5943 0053474 270.2691  89.2303 15.15224594488938
COSMOS 2428             
1 31792U 07029A   16139.07543829  .00000137  00000-0  10000-3 0  9993
2 31792  70.9424 161.3948 0006557 158.0512 299.3904 14.12386190458285
SL-16 R/B               
1 31793U 07029B   16138.46460376 -.00000155  00000-0 -56045-4 0  9993
2 31793  70.9742 140.3673 0002505 282.0938 186.2997 14.14363943458762
KORONAS-FOTON           
1 33504U 09003A   16138.42718831  .00001808  00000-0  96637-4 0  9992
2 33504  82.4432 266.0794 0020650  40.8900 319.3875 15.14293915401571
TIANGONG 1              
1 37820U 11053A   16139.22154332  .00018004  00000-0  20089-3 0  9997
2 37820  42.7636  66.4676 0013350 202.4444 264.7443 15.62355093265896
CZ-3B R/B               
1 38253U 12018D   16139.09290193  .00338668  54536-6  10296-2 0  9999
2 38253  54.9602 266.1407 3619441 178.4026 183.3122  8.35931259 88440
H-2A R/B                
1 38341U 12025E   16138.84138620  .00000592  00000-0  78027-4 0  9994
2 38341  98.4826 186.6737 0055889 350.2517   9.7606 14.83308043216263
CZ-2C R/B               
1 39000U 12064D   16139.11614087  .00189041  16360-4  41951-3 0  9999
2 39000  97.2765 181.9416 0002554 153.8283 206.3123 15.97956512197314
CUSAT 2 & FALCON 9 R/B  
1 39271U 13055G   16138.25918111  .00007566  00000-0  20554-3 0  9996
2 39271  80.9733  53.9994 0657489 288.2787  64.7956 14.31019793135873
ASTRO-H (HITOMI)        
1 41337U 16012A   16139.23576916  .00000617  00000-0  43914-4 0  9996
2 41337  31.0051 101.0368 0012408 100.9499 259.2533 14.98049865 13643
